VELA 2                   Age = -1.51
1 00674U 63039A   21344.30006316  .00000209  00000-0  00000+0 0  9991
2 00674  40.9558 137.8623 2286503 115.2373 359.6859  0.22202893 47170
OPS 6577 (VELA 5)        Age = -3.15
1 01458U 65058A   21345.93770331 -.00001543  00000-0  00000+0 0  9993
2 01458  20.8355   9.4841 4946973 273.2375 357.8602  0.21358078 82678
OPS 6564 (VELA 6)        Age = -0.29
1 01459U 65058B   21343.08576536 -.00001335  00000-0  00000-0 0  9999
2 01459  36.9725  33.1139 4586652  19.0202   1.3692  0.21416487  5721
GEOTAIL                  Age = -0.42
1 22049U 92044A   21343.20764364 -.00001501  00000-0  00000-0 0  9999
2 22049  42.7822  39.8120 5037732 190.4854   1.2196  0.19209160 12601
CLUSTER II-FM7 (SAMBA)   Age = -1.09
1 26410U 00041A   21343.88697729  .00000573  00000-0  00000+0 0  9991
2 26410 133.4017 345.9985 5241062 195.6625 359.7944  0.44210376 24735
CLUSTER II-FM6 (SALSA)   Age = -1.09
1 26411U 00041B   21343.87978485  .00000647  00000-0  00000+0 0  9994
2 26411 134.7705 348.4704 6819171 200.2225 359.8262  0.44218183 24045
CLUSTER II-FM5 (RUMBA)   Age = -1.09
1 26463U 00045A   21343.88314327  .00000705  00000-0  00000+0 0  9990
2 26463 138.3832 348.6391 6354199 200.7826 359.7888  0.44218426 25317
CLUSTER II-FM8 (TANGO)   Age = -1.09
1 26464U 00045B   21343.88583427  .00000573  00000-0  00000+0 0  9993
2 26464 133.3902 345.9882 5239119 195.6607 359.7657  0.44218890 60653
